H1 CPF 01  gfz 2022 03 14 13  5732 terrasarx 
H2 0702601  6201 31698    2022 03 14 12 59 42 2022 03 19 00 00 42   120 1 1  0 0 0
H9
10 0 59656  65502.000000  0   -6091564.900   -145873.925   3204625.871
10 0 59656  65622.000000  0   -6461610.647     35170.375   2379722.452
10 0 59656  65742.000000  0   -6715450.057    221059.384   1512906.116
10 0 59656  65862.000000  0   -6848615.217    406470.305    619445.042
10 0 59656  65982.000000  0   -6858865.065    586031.735   -284923.790
10 0 59656  66102.000000  0   -6746224.399    754458.743  -1184281.124
10 0 59656  66222.000000  0   -6512976.157    906686.158  -2062814.256
10 0 59656  66342.000000  0   -6163610.489   1037996.690  -2905101.341
10 0 59656  66462.000000  0   -5704730.249   1144141.745  -3696389.577
10 0 59656  66582.000000  0   -5144912.408   1221450.239  -4422855.842
10 0 59656  66702.000000  0   -4494534.756   1266923.665  -5071845.583
10 0 59656  66822.000000  0   -3765571.292   1278315.265  -5632086.905
10 0 59656  66942.000000  0   -2971362.566   1254191.846  -6093876.796
10 0 59656  67062.000000  0   -2126365.730   1193976.553  -6449238.264
10 0 59656  67182.000000  0   -1245888.843   1097973.864  -6692046.887
10 0 59656  67302.000000  0    -345814.659    967375.200  -6818124.656
10 0 59656  67422.000000  0     557679.809    804245.524  -6825302.971
10 0 59656  67542.000000  0    1448405.886    611491.506  -6713457.705
10 0 59656  67662.000000  0    2310447.953    392810.745  -6484512.276
10 0 59656  67782.000000  0    3128441.809    152623.489  -6142407.755
10 0 59656  67902.000000  0    3887845.063   -104012.349  -5693041.788
10 0 59656  68022.000000  0    4575193.512   -371502.542  -5144176.319
10 0 59656  68142.000000  0    5178342.900   -643831.602  -4505316.155
10 0 59656  68262.000000  0    5686691.005   -914690.747  -3787554.958
10 0 59656  68382.000000  0    6091373.478  -1177615.818  -3003391.625
10 0 59656  68502.000000  0    6385430.063  -1426132.876  -2166519.127
10 0 59656  68622.000000  0    6563936.993  -1653907.950  -1291588.164
10 0 59656  68742.000000  0    6624100.709  -1854897.081   -393949.501
10 0 59656  68862.000000  0    6565310.515  -2023493.018    510619.485
10 0 59656  68982.000000  0    6389148.002  -2154665.076   1406199.686
10 0 59656  69102.000000  0    6099351.473  -2244087.702   2277019.296
10 0 59656  69222.000000  0    5701736.979  -2288255.342   3107740.679
10 0 59656  69342.000000  0    5204077.180  -2284579.113   3883738.616
10 0 59656  69462.000000  0    4615941.464  -2231464.008   4591362.129
10 0 59656  69582.000000  0    3948504.678  -2128364.258   5218176.158
10 0 59656  69702.000000  0    3214326.548  -1975816.898   5753181.104
10 0 59656  69822.000000  0    2427105.836  -1775451.608   6187002.336
10 0 59656  69942.000000  0    1601418.695  -1529977.377   6512048.614
10 0 59656  70062.000000  0     752444.466  -1243146.941   6722639.146
10 0 59656  70182.000000  0    -104315.944   -919698.707   6815097.105
10 0 59656  70302.000000  0    -953323.124   -565277.542   6787808.726
10 0 59656  70422.000000  0   -1779279.578   -186336.424   6641249.252
10 0 59656  70542.000000  0   -2567403.990    209980.653   6377975.247
10 0 59656  70662.000000  0   -3303695.304    615972.451   6002583.583
10 0 59656  70782.000000  0   -3975183.324   1023528.598   5521636.919
10 0 59656  70902.000000  0   -4570162.057   1424289.723   4943555.340
10 0 59656  71022.000000  0   -5078400.453   1809817.616   4278474.606
10 0 59656  71142.000000  0   -5491326.453   2171771.698   3538072.429
10 0 59656  71262.000000  0   -5802179.440   2502087.650   2735365.551
10 0 59656  71382.000000  0   -6006128.949   2793154.614   1884481.143
10 0 59656  71502.000000  0   -6100356.812   3037986.982   1000405.081
10 0 59656  71622.000000  0   -6084098.513   3230386.031     98710.744
10 0 59656  71742.000000  0   -5958642.177   3365086.722   -804723.457
10 0 59656  71862.000000  0   -5727286.777   3437885.908  -1694002.445
10 0 59656  71982.000000  0   -5395260.076   3445749.495  -2553503.598
10 0 59656  72102.000000  0   -4969596.350   3386894.571  -3368158.425
10 0 59656  72222.000000  0   -4458980.212   3260845.415  -4123720.356
10 0 59656  72342.000000  0   -3873560.253   3068462.105  -4807012.835
10 0 59656  72462.000000  0   -3224738.858   2811942.038  -5406154.258
10 0 59656  72582.000000  0   -2524943.955   2494794.979  -5910755.419
10 0 59656  72702.000000  0   -1787387.380   2121793.310  -6312090.418
10 0 59656  72822.000000  0   -1025812.860   1698896.932  -6603235.953
10 0 59656  72942.000000  0    -254242.144   1233156.451  -6779178.935
10 0 59656  73062.000000  0     513278.389    732595.657  -6836893.228
10 0 59656  73182.000000  0    1262926.592    206076.043  -6775387.232
10 0 59656  73302.000000  0    1981349.026   -336857.063  -6595719.500
10 0 59656  73422.000000  0    2655892.907   -886143.149  -6300981.471
10 0 59656  73542.000000  0    3274825.515  -1431388.065  -5896250.444
10 0 59656  73662.000000  0    3827536.625  -1962055.358  -5388510.879
10 0 59656  73782.000000  0    4304723.197  -2467666.916  -4786545.952
10 0 59656  73902.000000  0    4698550.947  -2938009.068  -4100796.044
10 0 59656  74022.000000  0    5002789.286  -3363338.613  -3343187.715
10 0 59656  74142.000000  0    5212918.532  -3734585.369  -2526934.596
10 0 59656  74262.000000  0    5326205.630  -4043547.012  -1666311.002
10 0 59656  74382.000000  0    5341744.905  -4283070.730   -776402.979
10 0 59656  74502.000000  0    5260463.112  -4447217.777    127159.220
10 0 59656  74622.000000  0    5085087.394  -4531406.461   1028482.088
10 0 59656  74742.000000  0    4820075.595  -4532527.850   1911697.345
10 0 59656  74862.000000  0    4471511.584  -4449031.613   2761250.275
10 0 59656  74982.000000  0    4046968.820  -4280979.835   3562181.332
10 0 59656  75102.000000  0    3555345.218  -4030068.767   4300395.858
10 0 59656  75222.000000  0    3006672.650  -3699616.714   4962916.193
10 0 59656  75342.000000  0    2411907.685  -3294518.396   5538109.959
10 0 59656  75462.000000  0    1782708.620  -2821168.728   6015892.662
10 0 59656  75582.000000  0    1131202.462  -2287356.415   6387899.652
10 0 59656  75702.000000  0     469748.789  -1702131.733   6647626.214
10 0 59656  75822.000000  0    -189295.917  -1075650.284   6790535.183
10 0 59656  75942.000000  0    -833808.428   -418994.777   6814131.295
10 0 59656  76062.000000  0   -1452120.665    256021.402   6718001.630
10 0 59656  76182.000000  0   -2033230.176    937066.210   6503822.416
10 0 59656  76302.000000  0   -2566995.635   1611513.352   6175331.709
10 0 59656  76422.000000  0   -3044314.620   2266675.482   5738268.374
10 0 59656  76542.000000  0   -3457281.255   2890043.363   5200278.439
10 0 59656  76662.000000  0   -3799321.373   3469526.823   4570787.398
10 0 59656  76782.000000  0   -4065301.939   3993692.407   3860840.467
10 0 59656  76902.000000  0   -4251612.405   4451994.055   3082912.637
10 0 59656  77022.000000  0   -4356215.823   4834990.998   2250689.823
10 0 59656  77142.000000  0   -4378667.115   5134546.675   1378825.205
10 0 59656  77262.000000  0   -4320099.650   5344003.744    482676.414
10 0 59656  77382.000000  0   -4183180.410   5458331.863   -421971.648
10 0 59656  77502.000000  0   -3972033.024   5474244.624  -1319194.627
10 0 59656  77622.000000  0   -3692130.177   5390278.537  -2193219.827
10 0 59656  77742.000000  0   -3350158.902   5206835.404  -3028710.468
10 0 59656  77862.000000  0   -2953863.465   4926187.014  -3811040.190
10 0 59656  77982.000000  0   -2511870.127   4552441.105  -4526549.724
10 0 59656  78102.000000  0   -2033498.456   4091472.482  -5162781.349
10 0 59656  78222.000000  0   -1528564.856   3550822.771  -5708688.081
10 0 59656  78342.000000  0   -1007181.828   2939569.547  -6154817.372
10 0 59656  78462.000000  0    -479556.497   2268166.900  -6493464.394
10 0 59656  78582.000000  0      44206.489   1548263.134  -6718792.957
10 0 59656  78702.000000  0     554293.642    792498.784  -6826926.130
10 0 59656  78822.000000  0    1041362.170     14287.914  -6816006.437
10 0 59656  78942.000000  0    1496707.368   -772415.802  -6686223.880
10 0 59656  79062.000000  0    1912413.835  -1553363.200  -6439811.487
10 0 59656  79182.000000  0    2281490.376  -2314260.748  -6081011.302
10 0 59656  79302.000000  0    2597986.747  -3041026.219  -5616010.029
10 0 59656  79422.000000  0    2857091.165  -3720048.166  -5052844.398
10 0 59656  79542.000000  0    3055205.724  -4338442.444  -4401271.401
10 0 59656  79662.000000  0    3189997.082  -4884298.075  -3672609.082
10 0 59656  79782.000000  0    3260423.817  -5346912.334  -2879550.857
10 0 59656  79902.000000  0    3266738.328  -5717010.018  -2035950.595
10 0 59656  80022.000000  0    3210462.493  -5986937.863  -1156582.527
10 0 59656  80142.000000  0    3094337.307  -6150831.383   -256880.749
10 0 59656  80262.000000  0    2922246.090  -6204747.267    647337.917
10 0 59656  80382.000000  0    2699113.901  -6146758.115   1540158.688
10 0 59656  80502.000000  0    2430786.198  -5977008.154   2405858.879
10 0 59656  80622.000000  0    2123887.807  -5697724.320   3229194.153
10 0 59656  80742.000000  0    1785667.612  -5313185.748   3995672.908
10 0 59656  80862.000000  0    1423832.696  -4829653.719   4691815.577
10 0 59656  80982.000000  0    1046377.042  -4255262.469   5305393.340
10 0 59656  81102.000000  0     661407.332  -3599874.076   5825643.564
10 0 59656  81222.000000  0     276970.079  -2874898.699   6243454.475
10 0 59656  81342.000000  0     -99114.663  -2093088.741   6551517.623
10 0 59656  81462.000000  0    -459410.061  -1268310.638   6744448.998
10 0 59656  81582.000000  0    -797007.829   -415297.301   6818878.604
10 0 59656  81702.000000  0   -1105659.461    450616.343   6773506.279
10 0 59656  81822.000000  0   -1379891.382   1313768.947   6609122.710
10 0 59656  81942.000000  0   -1615101.685   2158455.147   6328596.326
99
